STARLINK-4679
1 53782U 22111K   26090.83335647  .00752069  00000+0  26661-1 0  9998
2 53782  53.2181 173.6076 0001429  55.3851 355.9926 15.26194843  5838
